CCSDS_OMM_VERS = 2.0
CREATION_DATE  = 
ORIGINATOR     = 

OBJECT_NAME    = STARLINK-36726
OBJECT_ID      = 2026-036X
CENTER_NAME    = EARTH
REF_FRAME      = TEME
TIME_SYSTEM    = UTC
MEAN_ELEMENT_THEORY = SGP/SGP4

EPOCH          = 2026-03-08T22:31:29.695296
MEAN_MOTION    = 15.81838832
ECCENTRICITY   = .000333
INCLINATION    = 42.9988
RA_OF_ASC_NODE = 254.1867
ARG_OF_PERICENTER = 245.4626
MEAN_ANOMALY   = 114.5898

EPHEMERIS_TYPE = 0
CLASSIFICATION_TYPE = U
NORAD_CAT_ID   = 67925
ELEMENT_SET_NO = 999
REV_AT_EPOCH   = 355
BSTAR          = -.93902522E-3
MEAN_MOTION_DOT = -.192425E-2
MEAN_MOTION_DDOT = 0

CCSDS_OMM_VERS = 2.0
CREATION_DATE  = 
ORIGINATOR     = 

OBJECT_NAME    = STARLINK-36758
OBJECT_ID      = 2026-036Y
CENTER_NAME    = EARTH
REF_FRAME      = TEME
TIME_SYSTEM    = UTC
MEAN_ELEMENT_THEORY = SGP/SGP4

EPOCH          = 2026-03-09T12:08:35.997216
MEAN_MOTION    = 15.82089976
ECCENTRICITY   = .0001937
INCLINATION    = 42.9989
RA_OF_ASC_NODE = 250.6982
ARG_OF_PERICENTER = 246.8053
MEAN_ANOMALY   = 113.2615

EPHEMERIS_TYPE = 0
CLASSIFICATION_TYPE = U
NORAD_CAT_ID   = 67926
ELEMENT_SET_NO = 999
REV_AT_EPOCH   = 364
BSTAR          = .18098E-2
MEAN_MOTION_DOT = .400083E-2
MEAN_MOTION_DDOT = 0

CCSDS_OMM_VERS = 2.0
CREATION_DATE  = 
ORIGINATOR     = 

OBJECT_NAME    = STARLINK-36728
OBJECT_ID      = 2026-036Z
CENTER_NAME    = EARTH
REF_FRAME      = TEME
TIME_SYSTEM    = UTC
MEAN_ELEMENT_THEORY = SGP/SGP4

EPOCH          = 2026-03-09T12:06:26.633952
MEAN_MOTION    = 15.82358672
ECCENTRICITY   = .0002968
INCLINATION    = 42.9988
RA_OF_ASC_NODE = 250.6861
ARG_OF_PERICENTER = 252.5032
MEAN_ANOMALY   = 107.5516

EPHEMERIS_TYPE = 0
CLASSIFICATION_TYPE = U
NORAD_CAT_ID   = 67927
ELEMENT_SET_NO = 999
REV_AT_EPOCH   = 364
BSTAR          = .33313E-2
MEAN_MOTION_DOT = .780178E-2
MEAN_MOTION_DDOT = 0

CCSDS_OMM_VERS = 2.0
CREATION_DATE  = 
ORIGINATOR     = 

OBJECT_NAME    = STARLINK-36771
OBJECT_ID      = 2026-036AA
CENTER_NAME    = EARTH
REF_FRAME      = TEME
TIME_SYSTEM    = UTC
MEAN_ELEMENT_THEORY = SGP/SGP4

EPOCH          = 2026-03-09T12:07:31.338912
MEAN_MOTION    = 15.82069537
ECCENTRICITY   = .0002032
INCLINATION    = 42.9991
RA_OF_ASC_NODE = 250.6920
ARG_OF_PERICENTER = 240.6864
MEAN_ANOMALY   = 119.3805

EPHEMERIS_TYPE = 0
CLASSIFICATION_TYPE = U
NORAD_CAT_ID   = 67928
ELEMENT_SET_NO = 999
REV_AT_EPOCH   = 364
BSTAR          = .18074E-2
MEAN_MOTION_DOT = .399122E-2
MEAN_MOTION_DDOT = 0

CCSDS_OMM_VERS = 2.0
CREATION_DATE  = 
ORIGINATOR     = 

OBJECT_NAME    = STARLINK-36809
OBJECT_ID      = 2026-036AB
CENTER_NAME    = EARTH
REF_FRAME      = TEME
TIME_SYSTEM    = UTC
MEAN_ELEMENT_THEORY = SGP/SGP4

EPOCH          = 2026-03-09T12:05:21.939360
MEAN_MOTION    = 15.82360410
ECCENTRICITY   = .0002771
INCLINATION    = 42.9988
RA_OF_ASC_NODE = 250.6792
ARG_OF_PERICENTER = 264.0612
MEAN_ANOMALY   = 95.9944

EPHEMERIS_TYPE = 0
CLASSIFICATION_TYPE = U
NORAD_CAT_ID   = 67929
ELEMENT_SET_NO = 999
REV_AT_EPOCH   = 364
BSTAR          = .32307E-2
MEAN_MOTION_DOT = .754372E-2
MEAN_MOTION_DDOT = 0

CCSDS_OMM_VERS = 2.0
CREATION_DATE  = 
ORIGINATOR     = 

OBJECT_NAME    = STARLINK-36865
OBJECT_ID      = 2026-036AC
CENTER_NAME    = EARTH
REF_FRAME      = TEME
TIME_SYSTEM    = UTC
MEAN_ELEMENT_THEORY = SGP/SGP4

EPOCH          = 2026-03-09T12:03:12.663360
MEAN_MOTION    = 15.82253456
ECCENTRICITY   = .0002252
INCLINATION    = 42.9987
RA_OF_ASC_NODE = 250.6664
ARG_OF_PERICENTER = 260.0101
MEAN_ANOMALY   = 100.0517

EPHEMERIS_TYPE = 0
CLASSIFICATION_TYPE = U
NORAD_CAT_ID   = 67930
ELEMENT_SET_NO = 999
REV_AT_EPOCH   = 364
BSTAR          = .23016E-2
MEAN_MOTION_DOT = .520098E-2
MEAN_MOTION_DDOT = 0

CCSDS_OMM_VERS = 2.0
CREATION_DATE  = 
ORIGINATOR     = 

OBJECT_NAME    = STARLINK-36781
OBJECT_ID      = 2026-036AD
CENTER_NAME    = EARTH
REF_FRAME      = TEME
TIME_SYSTEM    = UTC
MEAN_ELEMENT_THEORY = SGP/SGP4

EPOCH          = 2026-03-09T12:04:17.320800
MEAN_MOTION    = 15.82362145
ECCENTRICITY   = .0003204
INCLINATION    = 42.9991
RA_OF_ASC_NODE = 250.6736
ARG_OF_PERICENTER = 254.2028
MEAN_ANOMALY   = 105.8491

EPHEMERIS_TYPE = 0
CLASSIFICATION_TYPE = U
NORAD_CAT_ID   = 67931
ELEMENT_SET_NO = 999
REV_AT_EPOCH   = 364
BSTAR          = .33591E-2
MEAN_MOTION_DOT = .787462E-2
MEAN_MOTION_DDOT = 0

CCSDS_OMM_VERS = 2.0
CREATION_DATE  = 
ORIGINATOR     = 

OBJECT_NAME    = STARLINK-36301
OBJECT_ID      = 2026-037A
CENTER_NAME    = EARTH
REF_FRAME      = TEME
TIME_SYSTEM    = UTC
MEAN_ELEMENT_THEORY = SGP/SGP4

EPOCH          = 2026-03-09T12:00:01.999296
MEAN_MOTION    = 15.81982737
ECCENTRICITY   = .0001496
INCLINATION    = 42.9985
RA_OF_ASC_NODE = 199.7420
ARG_OF_PERICENTER = 275.3527
MEAN_ANOMALY   = 354.6708

EPHEMERIS_TYPE = 0
CLASSIFICATION_TYPE = U
NORAD_CAT_ID   = 67932
ELEMENT_SET_NO = 999
REV_AT_EPOCH   = 307
BSTAR          = .37028E-3
MEAN_MOTION_DOT = .78018E-3
MEAN_MOTION_DDOT = 0

CCSDS_OMM_VERS = 2.0
CREATION_DATE  = 
ORIGINATOR     = 

OBJECT_NAME    = STARLINK-36852
OBJECT_ID      = 2026-037B
CENTER_NAME    = EARTH
REF_FRAME      = TEME
TIME_SYSTEM    = UTC
MEAN_ELEMENT_THEORY = SGP/SGP4

EPOCH          = 2026-03-09T12:00:01.999296
MEAN_MOTION    = 15.82013661
ECCENTRICITY   = .0001389
INCLINATION    = 42.9985
RA_OF_ASC_NODE = 199.7310
ARG_OF_PERICENTER = 254.7487
MEAN_ANOMALY   = 19.5598

EPHEMERIS_TYPE = 0
CLASSIFICATION_TYPE = U
NORAD_CAT_ID   = 67933
ELEMENT_SET_NO = 999
REV_AT_EPOCH   = 316
BSTAR          = -.16875E-4
MEAN_MOTION_DOT = -.4084E-4
MEAN_MOTION_DDOT = 0

CCSDS_OMM_VERS = 2.0
CREATION_DATE  = 
ORIGINATOR     = 

OBJECT_NAME    = STARLINK-36861
OBJECT_ID      = 2026-037C
CENTER_NAME    = EARTH
REF_FRAME      = TEME
TIME_SYSTEM    = UTC
MEAN_ELEMENT_THEORY = SGP/SGP4

EPOCH          = 2026-03-09T12:00:01.999296
MEAN_MOTION    = 15.81981243
ECCENTRICITY   = .0001494
INCLINATION    = 42.9984
RA_OF_ASC_NODE = 199.7204
ARG_OF_PERICENTER = 249.3170
MEAN_ANOMALY   = 29.2580

EPHEMERIS_TYPE = 0
CLASSIFICATION_TYPE = U
NORAD_CAT_ID   = 67934
ELEMENT_SET_NO = 999
REV_AT_EPOCH   = 316
BSTAR          = .45281E-3
MEAN_MOTION_DOT = .95716E-3
MEAN_MOTION_DDOT = 0

CCSDS_OMM_VERS = 2.0
CREATION_DATE  = 
ORIGINATOR     = 

OBJECT_NAME    = STARLINK-36860
OBJECT_ID      = 2026-037D
CENTER_NAME    = EARTH
REF_FRAME      = TEME
TIME_SYSTEM    = UTC
MEAN_ELEMENT_THEORY = SGP/SGP4

EPOCH          = 2026-03-09T12:00:01.999296
MEAN_MOTION    = 15.81985982
ECCENTRICITY   = .0001344
INCLINATION    = 42.9983
RA_OF_ASC_NODE = 199.7101
ARG_OF_PERICENTER = 279.5474
MEAN_ANOMALY   = 3.3041

EPHEMERIS_TYPE = 0
CLASSIFICATION_TYPE = U
NORAD_CAT_ID   = 67935
ELEMENT_SET_NO = 999
REV_AT_EPOCH   = 316
BSTAR          = .5042E-3
MEAN_MOTION_DOT = .106798E-2
MEAN_MOTION_DDOT = 0

CCSDS_OMM_VERS = 2.0
CREATION_DATE  = 
ORIGINATOR     = 

OBJECT_NAME    = STARLINK-36848
OBJECT_ID      = 2026-037E
CENTER_NAME    = EARTH
REF_FRAME      = TEME
TIME_SYSTEM    = UTC
MEAN_ELEMENT_THEORY = SGP/SGP4

EPOCH          = 2026-03-09T12:00:01.999296
MEAN_MOTION    = 15.82038676
ECCENTRICITY   = .0001593
INCLINATION    = 42.9985
RA_OF_ASC_NODE = 199.6879
ARG_OF_PERICENTER = 262.3604
MEAN_ANOMALY   = 29.0358

EPHEMERIS_TYPE = 0
CLASSIFICATION_TYPE = U
NORAD_CAT_ID   = 67936
ELEMENT_SET_NO = 999
REV_AT_EPOCH   = 316
BSTAR          = -.2243E-3
MEAN_MOTION_DOT = -.47555E-3
MEAN_MOTION_DDOT = 0

