STARLINK-36726          
1 67925U 26036X   26067.93853814 -.00192425  00000+0 -93903-3 0  9999
2 67925  42.9988 254.1867 0003330 245.4626 114.5898 15.81838832  3558
STARLINK-36758          
1 67926U 26036Y   26068.50597219  .00400083  00000+0  18098-2 0  9999
2 67926  42.9989 250.6982 0001937 246.8053 113.2615 15.82089976  3640
STARLINK-36728          
1 67927U 26036Z   26068.50447493  .00780178  00000+0  33313-2 0  9991
2 67927  42.9988 250.6861 0002968 252.5032 107.5516 15.82358672  3640
STARLINK-36771          
1 67928U 26036AA  26068.50522383  .00399122  00000+0  18074-2 0  9996
2 67928  42.9991 250.6920 0002032 240.6864 119.3805 15.82069537  3645
STARLINK-36809          
1 67929U 26036AB  26068.50372615  .00754372  00000+0  32307-2 0  9995
2 67929  42.9988 250.6792 0002771 264.0612  95.9944 15.82360410  3647
STARLINK-36865          
1 67930U 26036AC  26068.50222990  .00520098  00000+0  23016-2 0  9990
2 67930  42.9987 250.6664 0002252 260.0101 100.0517 15.82253456  3644
STARLINK-36781          
1 67931U 26036AD  26068.50297825  .00787462  00000+0  33591-2 0  9999
2 67931  42.9991 250.6736 0003204 254.2028 105.8491 15.82362145  3641
STARLINK-36301          
1 67932U 26037A   26068.50002314  .00078018  00000+0  37028-3 0  9998
2 67932  42.9985 199.7420 0001496 275.3527 354.6708 15.81982737  3073
STARLINK-36852          
1 67933U 26037B   26068.50002314 -.00004084  00000+0 -16875-4 0  9991
2 67933  42.9985 199.7310 0001389 254.7487  19.5598 15.82013661  3165
STARLINK-36861          
1 67934U 26037C   26068.50002314  .00095716  00000+0  45281-3 0  9994
2 67934  42.9984 199.7204 0001494 249.3170  29.2580 15.81981243  3161
STARLINK-36860          
1 67935U 26037D   26068.50002314  .00106798  00000+0  50420-3 0  9999
2 67935  42.9983 199.7101 0001344 279.5474   3.3041 15.81985982  3162
STARLINK-36848          
1 67936U 26037E   26068.50002314 -.00047555  00000+0 -22430-3 0  9997
2 67936  42.9985 199.6879 0001593 262.3604  29.0358 15.82038676  3163
